
    {
        "ARG_OF_PERICENTER": 144.064,
        "BSTAR": 0.00040355,
        "CLASSIFICATION_TYPE": "U",
        "ECCENTRICITY": 0.0006164,
        "ELEMENT_SET_NO": 999,
        "EPHEMERIS_TYPE": 0,
        "EPOCH": "2026-05-04T11:57:45.783648",
        "INCLINATION": 97.8753,
        "MEAN_ANOMALY": 216.1017,
        "MEAN_MOTION": 15.33588293,
        "MEAN_MOTION_DDOT": 0,
        "MEAN_MOTION_DOT": 0.00013032,
        "NORAD_CAT_ID": 46506,
        "OBJECT_ID": "2020-068W",
        "OBJECT_NAME": "NETSAT-1",
        "RA_OF_ASC_NODE": 122.3867,
        "REV_AT_EPOCH": 30860
    },
    {
        "ARG_OF_PERICENTER": 131.3555,
        "BSTAR": 0.00047896,
        "CLASSIFICATION_TYPE": "U",
        "ECCENTRICITY": 0.0005809,
        "ELEMENT_SET_NO": 999,
        "EPHEMERIS_TYPE": 0,
        "EPOCH": "2026-05-04T12:18:32.707584",
        "INCLINATION": 97.8634,
        "MEAN_ANOMALY": 228.8192,
        "MEAN_MOTION": 15.44171527,
        "MEAN_MOTION_DDOT": 0,
        "MEAN_MOTION_DOT": 0.00021906,
        "NORAD_CAT_ID": 46507,
        "OBJECT_ID": "2020-068X",
        "OBJECT_NAME": "NETSAT-2",
        "RA_OF_ASC_NODE": 129.0456,
        "REV_AT_EPOCH": 30899
    },
    {
        "ARG_OF_PERICENTER": 300.3299,
        "BSTAR": 0,
        "CLASSIFICATION_TYPE": "U",
        "ECCENTRICITY": 0.000885,
        "ELEMENT_SET_NO": 999,
        "EPHEMERIS_TYPE": 0,
        "EPOCH": "2026-05-02T21:27:30.712608",
        "INCLINATION": 70.1448,
        "MEAN_ANOMALY": 59.6485,
        "MEAN_MOTION": 6.42583286,
        "MEAN_MOTION_DDOT": 0,
        "MEAN_MOTION_DOT": -3e-08,
        "NORAD_CAT_ID": 53109,
        "OBJECT_ID": "2022-080E",
        "OBJECT_NAME": "GREENCUBE (IO-117)",
        "RA_OF_ASC_NODE": 314.0048,
        "REV_AT_EPOCH": 8915
    },
    {
        "ARG_OF_PERICENTER": 251.8031,
        "BSTAR": 0.00041287,
        "CLASSIFICATION_TYPE": "U",
        "ECCENTRICITY": 0.0010141,
        "ELEMENT_SET_NO": 999,
        "EPHEMERIS_TYPE": 0,
        "EPOCH": "2026-05-04T17:51:00.412128",
        "INCLINATION": 97.5082,
        "MEAN_ANOMALY": 108.2105,
        "MEAN_MOTION": 15.28476562,
        "MEAN_MOTION_DDOT": 0,
        "MEAN_MOTION_DOT": 0.00011388,
        "NORAD_CAT_ID": 57176,
        "OBJECT_ID": "2023-091L",
        "OBJECT_NAME": "SITRO-AIS 5 (KATYS)",
        "RA_OF_ASC_NODE": 188.2585,
        "REV_AT_EPOCH": 15770
    },
    {
        "ARG_OF_PERICENTER": 256.0637,
        "BSTAR": 0.0002357,
        "CLASSIFICATION_TYPE": "U",
        "ECCENTRICITY": 0.0010379,
        "ELEMENT_SET_NO": 999,
        "EPHEMERIS_TYPE": 0,
        "EPOCH": "2026-05-04T19:43:42.303360",
        "INCLINATION": 97.509,
        "MEAN_ANOMALY": 103.9447,
        "MEAN_MOTION": 15.25175659,
        "MEAN_MOTION_DDOT": 0,
        "MEAN_MOTION_DOT": 5.847e-05,
        "NORAD_CAT_ID": 57192,
        "OBJECT_ID": "2023-091AC",
        "OBJECT_NAME": "SITRO-AIS 6 (CHIRKIN)",
        "RA_OF_ASC_NODE": 187.6798,
        "REV_AT_EPOCH": 15767
    },
    {
        "ARG_OF_PERICENTER": 246.5975,
        "BSTAR": 0.00043215,
        "CLASSIFICATION_TYPE": "U",
        "ECCENTRICITY": 0.0009406,
        "ELEMENT_SET_NO": 999,
        "EPHEMERIS_TYPE": 0,
        "EPOCH": "2026-05-04T20:01:09.848064",
        "INCLINATION": 97.5077,
        "MEAN_ANOMALY": 113.4277,
        "MEAN_MOTION": 15.30995896,
        "MEAN_MOTION_DDOT": 0,
        "MEAN_MOTION_DOT": 0.00012887,
        "NORAD_CAT_ID": 57193,
        "OBJECT_ID": "2023-091AD",
        "OBJECT_NAME": "SITRO-AIS 8 (ANOKHIN)",
        "RA_OF_ASC_NODE": 189.7685,
        "REV_AT_EPOCH": 15781
    },
    {
        "ARG_OF_PERICENTER": 257.3018,
        "BSTAR": 0.00021924,
        "CLASSIFICATION_TYPE": "U",
        "ECCENTRICITY": 0.0010202,
        "ELEMENT_SET_NO": 999,
        "EPHEMERIS_TYPE": 0,
        "EPOCH": "2026-05-04T19:35:53.909088",
        "INCLINATION": 97.5089,
        "MEAN_ANOMALY": 102.7079,
        "MEAN_MOTION": 15.24883808,
        "MEAN_MOTION_DDOT": 0,
        "MEAN_MOTION_DOT": 5.385e-05,
        "NORAD_CAT_ID": 57194,
        "OBJECT_ID": "2023-091AE",
        "OBJECT_NAME": "SITRO-AIS 7 (FARTUSHNIY)",
        "RA_OF_ASC_NODE": 187.5209,
        "REV_AT_EPOCH": 15766
    },
    {
        "ARG_OF_PERICENTER": 215.2624,
        "BSTAR": 0.0005393,
        "CLASSIFICATION_TYPE": "U",
        "ECCENTRICITY": 0.0006279,
        "ELEMENT_SET_NO": 999,
        "EPHEMERIS_TYPE": 0,
        "EPOCH": "2026-05-04T20:18:23.002848",
        "INCLINATION": 97.5098,
        "MEAN_ANOMALY": 144.8205,
        "MEAN_MOTION": 15.37009069,
        "MEAN_MOTION_DDOT": 0,
        "MEAN_MOTION_DOT": 0.00019479,
        "NORAD_CAT_ID": 57199,
        "OBJECT_ID": "2023-091AK",
        "OBJECT_NAME": "SITRO-AIS 10 (BURDAEV)",
        "RA_OF_ASC_NODE": 194.405,
        "REV_AT_EPOCH": 15810
    },
    {
        "ARG_OF_PERICENTER": 215.9044,
        "BSTAR": 0.00055794,
        "CLASSIFICATION_TYPE": "U",
        "ECCENTRICITY": 0.0006497,
        "ELEMENT_SET_NO": 999,
        "EPHEMERIS_TYPE": 0,
        "EPOCH": "2026-05-04T20:37:33.466368",
        "INCLINATION": 97.5097,
        "MEAN_ANOMALY": 144.1764,
        "MEAN_MOTION": 15.36561847,
        "MEAN_MOTION_DDOT": 0,
        "MEAN_MOTION_DOT": 0.00019869,
        "NORAD_CAT_ID": 57201,
        "OBJECT_ID": "2023-091AM",
        "OBJECT_NAME": "SITRO-AIS 9 (SHCHUKIN)",
        "RA_OF_ASC_NODE": 194.1809,
        "REV_AT_EPOCH": 15809
    },
    {
        "ARG_OF_PERICENTER": 208.9406,
        "BSTAR": 0.00055153,
        "CLASSIFICATION_TYPE": "U",
        "ECCENTRICITY": 0.0006305,
        "ELEMENT_SET_NO": 999,
        "EPHEMERIS_TYPE": 0,
        "EPOCH": "2026-05-04T20:35:40.106976",
        "INCLINATION": 97.5109,
        "MEAN_ANOMALY": 151.1489,
        "MEAN_MOTION": 15.3684198,
        "MEAN_MOTION_DDOT": 0,
        "MEAN_MOTION_DOT": 0.00019817,
        "NORAD_CAT_ID": 57204,
        "OBJECT_ID": "2023-091AQ",
        "OBJECT_NAME": "SITRO-AIS 12 (SMIRENNIY)",
        "RA_OF_ASC_NODE": 194.6202,
        "REV_AT_EPOCH": 15811
    },
    {
        "ARG_OF_PERICENTER": 209.0557,
        "BSTAR": 0.00056366,
        "CLASSIFICATION_TYPE": "U",
        "ECCENTRICITY": 0.000624,
        "ELEMENT_SET_NO": 999,
        "EPHEMERIS_TYPE": 0,
        "EPOCH": "2026-05-04T19:37:40.549152",
        "INCLINATION": 97.5107,
        "MEAN_ANOMALY": 151.0341,
        "MEAN_MOTION": 15.37228595,
        "MEAN_MOTION_DDOT": 0,
        "MEAN_MOTION_DOT": 0.0002051,
        "NORAD_CAT_ID": 57208,
        "OBJECT_ID": "2023-091AU",
        "OBJECT_NAME": "SITRO-AIS 11 (SHEFFER)",
        "RA_OF_ASC_NODE": 194.7993,
        "REV_AT_EPOCH": 15812
    },
    {
        "ARG_OF_PERICENTER": 119.3946,
        "BSTAR": 0.00045278,
        "CLASSIFICATION_TYPE": "U",
        "ECCENTRICITY": 0.0147468,
        "ELEMENT_SET_NO": 999,
        "EPHEMERIS_TYPE": 0,
        "EPOCH": "2026-05-04T19:44:08.385792",
        "INCLINATION": 95.3916,
        "MEAN_ANOMALY": 242.2095,
        "MEAN_MOTION": 14.93191988,
        "MEAN_MOTION_DDOT": 0,
        "MEAN_MOTION_DOT": 5.825e-05,
        "NORAD_CAT_ID": 59066,
        "OBJECT_ID": "2024-039R",
        "OBJECT_NAME": "SITRO-AIS 25",
        "RA_OF_ASC_NODE": 205.299,
        "REV_AT_EPOCH": 11825
    }