NETSAT-1                
1 46506U 20068W   26124.49844657  .00013032  00000+0  40355-3 0  9997
2 46506  97.8753 122.3867 0006164 144.0640 216.1017 15.33588293308609
NETSAT-2                
1 46507U 20068X   26124.51287856  .00021906  00000+0  47896-3 0  9999
2 46507  97.8634 129.0456 0005809 131.3555 228.8192 15.44171527308991
GREENCUBE (IO-117)      
1 53109U 22080E   26122.89410547 -.00000003  00000+0  00000+0 0  9993
2 53109  70.1448 314.0048 0008850 300.3299  59.6485  6.42583286 89155
SITRO-AIS 5 (KATYS)     
1 57176U 23091L   26124.74375477  .00011388  00000+0  41287-3 0  9995
2 57176  97.5082 188.2585 0010141 251.8031 108.2105 15.28476562157706
SITRO-AIS 6 (CHIRKIN)   
1 57192U 23091AC  26124.82201740  .00005847  00000+0  23570-3 0  9991
2 57192  97.5090 187.6798 0010379 256.0637 103.9447 15.25175659157671
SITRO-AIS 8 (ANOKHIN)   
1 57193U 23091AD  26124.83414176  .00012887  00000+0  43215-3 0  9992
2 57193  97.5077 189.7685 0009406 246.5975 113.4277 15.30995896157815
SITRO-AIS 7 (FARTUSHNIY)
1 57194U 23091AE  26124.81659617  .00005385  00000+0  21924-3 0  9990
2 57194  97.5089 187.5209 0010202 257.3018 102.7079 15.24883808157667
SITRO-AIS 10 (BURDAEV)  
1 57199U 23091AK  26124.84609957  .00019479  00000+0  53930-3 0  9991
2 57199  97.5098 194.4050 0006279 215.2624 144.8205 15.37009069158109
SITRO-AIS 9 (SHCHUKIN)  
1 57201U 23091AM  26124.85941512  .00019869  00000+0  55794-3 0  9995
2 57201  97.5097 194.1809 0006497 215.9044 144.1764 15.36561847158093
SITRO-AIS 12 (SMIRENNIY)
1 57204U 23091AQ  26124.85810309  .00019817  00000+0  55153-3 0  9999
2 57204  97.5109 194.6202 0006305 208.9406 151.1489 15.36841980158118
SITRO-AIS 11 (SHEFFER)  
1 57208U 23091AU  26124.81783043  .00020510  00000+0  56366-3 0  9992
2 57208  97.5107 194.7993 0006240 209.0557 151.0341 15.37228595158124
SITRO-AIS 25            
1 59066U 24039R   26124.82231928  .00005825  00000+0  45278-3 0  9992
2 59066  95.3916 205.2990 0147468 119.3946 242.2095 14.93191988118255
